[{"OBJECT_NAME":"STARLINK-32859","OBJECT_ID":"2025-022H","EPOCH":"2026-03-09T13:06:26.272224","MEAN_MOTION":15.30190276,"ECCENTRICITY":0.0001194,"INCLINATION":53.1584,"RA_OF_ASC_NODE":130.5997,"ARG_OF_PERICENTER":101.9679,"MEAN_ANOMALY":258.1455,"EPHEMERIS_TYPE":0,"CLASSIFICATION_TYPE":"U","NORAD_CAT_ID":62861,"ELEMENT_SET_NO":999,"REV_AT_EPOCH":6187,"BSTAR":0.0007065,"MEAN_MOTION_DOT":0.00020617,"MEAN_MOTION_DDOT":0},{"OBJECT_NAME":"SL-3 R\/B","OBJECT_ID":"1983-003B","EPOCH":"2026-03-09T21:31:00.897888","MEAN_MOTION":15.34640469,"ECCENTRICITY":0.00285789,"INCLINATION":81.155,"RA_OF_ASC_NODE":261.9078,"ARG_OF_PERICENTER":155.4571,"MEAN_ANOMALY":204.8036,"EPHEMERIS_TYPE":0,"CLASSIFICATION_TYPE":"U","NORAD_CAT_ID":13771,"ELEMENT_SET_NO":999,"REV_AT_EPOCH":35642,"BSTAR":0.00033440366,"MEAN_MOTION_DOT":0.00011405,"MEAN_MOTION_DDOT":0}]
